[{"OBJECT_NAME":"TIANHUI 2-02A","OBJECT_ID":"2021-074A","EPOCH":"2026-03-09T12:16:24.538368","MEAN_MOTION":15.16780969,"ECCENTRICITY":0.0001796,"INCLINATION":97.4829,"RA_OF_ASC_NODE":73.047,"ARG_OF_PERICENTER":100.814,"MEAN_ANOMALY":259.3296,"EPHEMERIS_TYPE":0,"CLASSIFICATION_TYPE":"U","NORAD_CAT_ID":49071,"ELEMENT_SET_NO":999,"REV_AT_EPOCH":25216,"BSTAR":0.00013771,"MEAN_MOTION_DOT":2.637e-5,"MEAN_MOTION_DDOT":0},{"OBJECT_NAME":"COSMOS 2251 DEB","OBJECT_ID":"1993-036BDM","EPOCH":"2026-03-07T08:26:45.291840","MEAN_MOTION":15.06951358,"ECCENTRICITY":0.00416459,"INCLINATION":73.8833,"RA_OF_ASC_NODE":199.9445,"ARG_OF_PERICENTER":129.9164,"MEAN_ANOMALY":230.5698,"EPHEMERIS_TYPE":0,"CLASSIFICATION_TYPE":"U","NORAD_CAT_ID":36551,"ELEMENT_SET_NO":999,"REV_AT_EPOCH":68204,"BSTAR":0.0035281021,"MEAN_MOTION_DOT":0.00054188,"MEAN_MOTION_DDOT":0}]
